{"type": "FeatureCollection", "features": [ {"type": "Feature", "properties": {"norad_id": 35108, "name": "FENGYUN 1C DEB", "group": "fengyun-1c-debris", "lat": 66.50775569528332, "lon": -172.84921430495106, "alt_km": 815.6779246201904, "timestamp": "2025-12-16T17:51:11.218963+00:00", "meta": {"OBJECT_NAME": "FENGYUN 1C DEB", "OBJECT_ID": "1999-025DKL", "EPOCH": "2025-12-14T17:32:43.265184", "MEAN_MOTION": 14.06913766, "ECCENTRICITY": 0.01353379, "INCLINATION": 98.801, "RA_OF_ASC_NODE": 344.3103, "ARG_OF_PERICENTER": 55.9263, "MEAN_ANOMALY": 305.4667, "EPHEMERIS_TYPE": 0, "CLASSIFICATION_TYPE": "U", "NORAD_CAT_ID": 35108, "ELEMENT_SET_NO": 999, "REV_AT_EPOCH": 89266, "BSTAR": 0.00032621951, "MEAN_MOTION_DOT": 5.49e-06, "MEAN_MOTION_DDOT": 0}, "tle": {"line1": "1 35108U 99025DKL 25348.73105631  .00000549  00000+0  32622-3 0  9995", "line2": "2 35108  98.8010 344.3103 0135337  55.9263 305.4667 14.06913766892660"}}, "geometry": {"type": "Point", "coordinates": [-172.84921430495106, 66.50775569528332]}}, {"type": "Feature", "properties": {"norad_id": 35109, "name": "FENGYUN 1C DEB", "group": "fengyun-1c-debris", "lat": 68.11167776487143, "lon": -177.90252370033642, "alt_km": 808.885610711598, "timestamp": "2025-12-16T17:51:11.218973+00:00", "meta": {"OBJECT_NAME": "FENGYUN 1C DEB", "OBJECT_ID": "1999-025DKM", "EPOCH": "2025-12-13T16:40:36.803424", "MEAN_MOTION": 14.20877233, "ECCENTRICITY": 0.01533386, "INCLINATION": 98.6156, "RA_OF_ASC_NODE": 336.953, "ARG_OF_PERICENTER": 31.6459, "MEAN_ANOMALY": 329.3826, "EPHEMERIS_TYPE": 0, "CLASSIFICATION_TYPE": "U", "NORAD_CAT_ID": 35109, "ELEMENT_SET_NO": 999, "REV_AT_EPOCH": 64173, "BSTAR": 0.00043322585, "MEAN_MOTION_DOT": 1.012e-05, "MEAN_MOTION_DDOT": 0}, "tle": {"line1": "1 35109U 99025DKM 25347.69487041  .00001012  00000+0  43323-3 0  9994", "line2": "2 35109  98.6156 336.9530 0153338  31.6459 329.3826 14.20877233641736"}}, "geometry": {"type": "Point", "coordinates": [-177.90252370033642, 68.11167776487143]}}, {"type": "Feature", "properties": {"norad_id": 35111, "name": "FENGYUN 1C DEB", "group": "fengyun-1c-debris", "lat": 1.248547909292476, "lon": -110.18446278399189, "alt_km": 845.3062831933103, "timestamp": "2025-12-16T17:51:11.218983+00:00", "meta": {"OBJECT_NAME": "FENGYUN 1C DEB", "OBJECT_ID": "1999-025DKP", "EPOCH": "2025-12-07T11:45:43.563456", "MEAN_MOTION": 14.10954545, "ECCENTRICITY": 0.00216077, "INCLINATION": 99.4664, "RA_OF_ASC_NODE": 59.8627, "ARG_OF_PERICENTER": 235.1352, "MEAN_ANOMALY": 124.7786, "EPHEMERIS_TYPE": 0, "CLASSIFICATION_TYPE": "U", "NORAD_CAT_ID": 35111, "ELEMENT_SET_NO": 999, "REV_AT_EPOCH": 64070, "BSTAR": 0.00078112566, "MEAN_MOTION_DOT": 1.356e-05, "MEAN_MOTION_DDOT": 0}, "tle": {"line1": "1 35111U 99025DKP 25341.49008754  .00001356  00000+0  78113-3 0  9995", "line2": "2 35111  99.4664  59.8627 0021607 235.1352 124.7786 14.10954545640705"}}, "geometry": {"type": "Point", "coordinates": [-110.18446278399189, 1.248547909292476]}}, {"type": "Feature", "properties": {"norad_id": 35116, "name": "FENGYUN 1C DEB", "group": "fengyun-1c-debris", "lat": -80.26751600069379, "lon": 153.9410349194158, "alt_km": 843.9263162089919, "timestamp": "2025-12-16T17:51:11.218993+00:00", "meta": {"OBJECT_NAME": "FENGYUN 1C DEB", "OBJECT_ID": "1999-025DKU", "EPOCH": "2025-12-10T22:26:07.135584", "MEAN_MOTION": 14.25062569, "ECCENTRICITY": 0.0059356, "INCLINATION": 98.6618, "RA_OF_ASC_NODE": 30.9255, "ARG_OF_PERICENTER": 54.5271, "MEAN_ANOMALY": 306.1428, "EPHEMERIS_TYPE": 0, "CLASSIFICATION_TYPE": "U", "NORAD_CAT_ID": 35116, "ELEMENT_SET_NO": 999, "REV_AT_EPOCH": 59934, "BSTAR": 0.0014341, "MEAN_MOTION_DOT": 3.381e-05, "MEAN_MOTION_DDOT": 0}, "tle": {"line1": "1 35116U 99025DKU 25344.93480481  .00003381  00000+0  14341-2 0  9995", "line2": "2 35116  98.6618  30.9255 0059356  54.5271 306.1428 14.25062569599346"}}, "geometry": {"type": "Point", "coordinates": [153.9410349194158, -80.26751600069379]}}, {"type": "Feature", "properties": {"norad_id": 35121, "name": "FENGYUN 1C DEB", "group": "fengyun-1c-debris", "lat": 24.66875678361416, "lon": 37.503598516576844, "alt_km": 834.9789500626994, "timestamp": "2025-12-16T17:51:11.219003+00:00", "meta": {"OBJECT_NAME": "FENGYUN 1C DEB", "OBJECT_ID": "1999-025DKZ", "EPOCH": "2025-12-14T20:41:20.055552", "MEAN_MOTION": 14.04750382, "ECCENTRICITY": 0.01586034, "INCLINATION": 98.3008, "RA_OF_ASC_NODE": 211.9365, "ARG_OF_PERICENTER": 90.6719, "MEAN_ANOMALY": 271.2626, "EPHEMERIS_TYPE": 0, "CLASSIFICATION_TYPE": "U", "NORAD_CAT_ID": 35121, "ELEMENT_SET_NO": 999, "REV_AT_EPOCH": 61121, "BSTAR": 0.00012700781, "MEAN_MOTION_DOT": 1.91e-06, "MEAN_MOTION_DDOT": 0}, "tle": {"line1": "1 35121U 99025DKZ 25348.86203768  .00000191  00000+0  12701-3 0  9993", "line2": "2 35121  98.3008 211.9365 0158603  90.6719 271.2626 14.04750382611215"}}, "geometry": {"type": "Point", "coordinates": [37.503598516576844, 24.66875678361416]}}, {"type": "Feature", "properties": {"norad_id": 35122, "name": "FENGYUN 1C DEB", "group": "fengyun-1c-debris", "lat": -29.538769184014928, "lon": -175.9227380170587, "alt_km": 842.8669900965297, "timestamp": "2025-12-16T17:51:11.219013+00:00", "meta": {"OBJECT_NAME": "FENGYUN 1C DEB", "OBJECT_ID": "1999-025DLA", "EPOCH": "2025-12-15T00:06:40.362048", "MEAN_MOTION": 14.14126728, "ECCENTRICITY": 0.00254277, "INCLINATION": 98.6719, "RA_OF_ASC_NODE": 7.3508, "ARG_OF_PERICENTER": 151.3893, "MEAN_ANOMALY": 208.8682, "EPHEMERIS_TYPE": 0, "CLASSIFICATION_TYPE": "U", "NORAD_CAT_ID": 35122, "ELEMENT_SET_NO": 999, "REV_AT_EPOCH": 63899, "BSTAR": 0.00030790623, "MEAN_MOTION_DOT": 5.46e-06, "MEAN_MOTION_DDOT": 0}, "tle": {"line1": "1 35122U 99025DLA 25349.00463382  .00000546  00000+0  30791-3 0  9994", "line2": "2 35122  98.6719   7.3508 0025427 151.3893 208.8682 14.14126728638993"}}, "geometry": {"type": "Point", "coordinates": [-175.9227380170587, -29.538769184014928]}}, {"type": "Feature", "properties": {"norad_id": 35123, "name": "FENGYUN 1C DEB", "group": "fengyun-1c-debris", "lat": 28.957084101435886, "lon": -1.3203340460267976, "alt_km": 806.7733191099724, "timestamp": "2025-12-16T17:51:11.219023+00:00", "meta": {"OBJECT_NAME": "FENGYUN 1C DEB", "OBJECT_ID": "1999-025DLB", "EPOCH": "2025-12-15T05:44:46.773600", "MEAN_MOTION": 14.2422342, "ECCENTRICITY": 0.00496704, "INCLINATION": 99.1227, "RA_OF_ASC_NODE": 172.0178, "ARG_OF_PERICENTER": 69.1967, "MEAN_ANOMALY": 291.4521, "EPHEMERIS_TYPE": 0, "CLASSIFICATION_TYPE": "U", "NORAD_CAT_ID": 35123, "ELEMENT_SET_NO": 999, "REV_AT_EPOCH": 61109, "BSTAR": 0.00057394195, "MEAN_MOTION_DOT": 1.293e-05, "MEAN_MOTION_DDOT": 0}, "tle": {"line1": "1 35123U 99025DLB 25349.23943025  .00001293  00000+0  57394-3 0  9995", "line2": "2 35123  99.1227 172.0178 0049670  69.1967 291.4521 14.24223420611091"}}, "geometry": {"type": "Point", "coordinates": [-1.3203340460267976, 28.957084101435886]}}, {"type": "Feature", "properties": {"norad_id": 35125, "name": "FENGYUN 1C DEB", "group": "fengyun-1c-debris", "lat": 2.11844635419633, "lon": 1.2782053473813355, "alt_km": 776.7552187494857, "timestamp": "2025-12-16T17:51:11.219034+00:00", "meta": {"OBJECT_NAME": "FENGYUN 1C DEB", "OBJECT_ID": "1999-025DLD", "EPOCH": "2025-12-08T07:05:36.118752", "MEAN_MOTION": 14.33084151, "ECCENTRICITY": 0.00521413, "INCLINATION": 98.2165, "RA_OF_ASC_NODE": 353.5679, "ARG_OF_PERICENTER": 308.0323, "MEAN_ANOMALY": 51.6162, "EPHEMERIS_TYPE": 0, "CLASSIFICATION_TYPE": "U", "NORAD_CAT_ID": 35125, "ELEMENT_SET_NO": 999, "REV_AT_EPOCH": 31218, "BSTAR": 0.0020544677, "MEAN_MOTION_DOT": 5.68e-05, "MEAN_MOTION_DDOT": 0}, "tle": {"line1": "1 35125U 99025DLD 25342.29555693  .00005680  00000+0  20545-2 0  9997", "line2": "2 35125  98.2165 353.5679 0052141 308.0323  51.6162 14.33084151312185"}}, "geometry": {"type": "Point", "coordinates": [1.2782053473813355, 2.11844635419633]}}, {"type": "Feature", "properties": {"norad_id": 35130, "name": "FENGYUN 1C DEB", "group": "fengyun-1c-debris", "lat": -22.63283223651055, "lon": 12.150659837405524, "alt_km": 574.6444359480956, "timestamp": "2025-12-16T17:51:11.219044+00:00", "meta": {"OBJECT_NAME": "FENGYUN 1C DEB", "OBJECT_ID": "1999-025DLJ", "EPOCH": "2025-12-14T07:21:05.871744", "MEAN_MOTION": 15.00596646, "ECCENTRICITY": 0.00101464, "INCLINATION": 99.0323, "RA_OF_ASC_NODE": 193.1239, "ARG_OF_PERICENTER": 65.1108, "MEAN_ANOMALY": 295.1165, "EPHEMERIS_TYPE": 0, "CLASSIFICATION_TYPE": "U", "NORAD_CAT_ID": 35130, "ELEMENT_SET_NO": 999, "REV_AT_EPOCH": 64937, "BSTAR": 0.0087033877, "MEAN_MOTION_DOT": 0.00111682, "MEAN_MOTION_DDOT": 0}, "tle": {"line1": "1 35130U 99025DLJ 25348.30631796  .00111682  00000+0  87034-2 0  9996", "line2": "2 35130  99.0323 193.1239 0010146  65.1108 295.1165 15.00596646649371"}}, "geometry": {"type": "Point", "coordinates": [12.150659837405524, -22.63283223651055]}}, {"type": "Feature", "properties": {"norad_id": 35135, "name": "FENGYUN 1C DEB", "group": "fengyun-1c-debris", "lat": -69.00333810309567, "lon": 22.55276700498395, "alt_km": 768.2506965733037, "timestamp": "2025-12-16T17:51:11.219054+00:00", "meta": {"OBJECT_NAME": "FENGYUN 1C DEB", "OBJECT_ID": "1999-025DLP", "EPOCH": "2025-12-15T18:32:56.959872", "MEAN_MOTION": 14.22545358, "ECCENTRICITY": 0.00807853, "INCLINATION": 98.5635, "RA_OF_ASC_NODE": 358.4925, "ARG_OF_PERICENTER": 275.4933, "MEAN_ANOMALY": 83.7035, "EPHEMERIS_TYPE": 0, "CLASSIFICATION_TYPE": "U", "NORAD_CAT_ID": 35135, "ELEMENT_SET_NO": 999, "REV_AT_EPOCH": 87867, "BSTAR": 0.00047091267, "MEAN_MOTION_DOT": 1.044e-05, "MEAN_MOTION_DDOT": 0}, "tle": {"line1": "1 35135U 99025DLP 25349.77288148  .00001044  00000+0  47091-3 0  9992", "line2": "2 35135  98.5635 358.4925 0080785 275.4933  83.7035 14.22545358878673"}}, "geometry": {"type": "Point", "coordinates": [22.55276700498395, -69.00333810309567]}}]}